     3.03           N: GNSS NAV DATA    G: GPS              RINEX VERSION / TYPE
CONVBIN demo5 b34g                      20231126 132201 UTC PGM / RUN BY / DATE 
log: 20230910-MSM7.rtcm                                     COMMENT             
format: RTCM 3                                              COMMENT             
format: RTCM 3                                              COMMENT             
log: 20230910-MSM7.rtcm                                     COMMENT             
                                                            END OF HEADER       
G03 2023 09 10 12 00 00 -.142802949995D-03  .203499439522D-10  .000000000000D+00
      .290000000000D+02 -.695000000000D+02  .431196532495D-08  .135977406140D+01
     -.370666384697D-05  .512903963681D-02  .374950468540D-05  .515360323143D+04
      .432000000000D+05 -.167638063431D-06  .142271981001D+01  .447034835815D-07
      .980198946523D+00  .318093750000D+03  .110534693905D+01 -.813105297671D-08
     -.184650548579D-09  .100000000000D+01  .227900000000D+04  .000000000000D+00
      .200000000000D+01  .000000000000D+00  .186264514923D-08  .290000000000D+02
      .414010000000D+05  .400000000000D+01
G04 2023 09 10 12 00 00  .151809304953D-03  .112549969344D-10  .000000000000D+00
      .670000000000D+02 -.676875000000D+02  .416195907659D-08 -.190315059802D+01
     -.354275107384D-05  .253424153198D-02  .103078782558D-04  .515363169289D+04
      .432000000000D+05 -.726431608200D-07  .250344675211D+01  .372529029846D-08
      .963615114072D+00  .181031250000D+03 -.304226572546D+01 -.772675042160D-08
      .675028117631D-10  .100000000000D+01  .227900000000D+04  .000000000000D+00
      .200000000000D+01  .000000000000D+00 -.419095158577D-08  .323000000000D+03
      .414020000000D+05  .400000000000D+01
G06 2023 09 10 12 00 00  .552714802325D-03 -.659383658785D-11  .000000000000D+00
      .100000000000D+03  .749062500000D+02  .410017078857D-08  .277950182212D+01
      .398419797421D-05  .275172560941D-02  .425614416599D-05  .515373824692D+04
      .432000000000D+05  .633299350739D-07  .384617241972D+00  .763684511185D-07
      .989659266161D+00  .311968750000D+03 -.805088439485D+00 -.796176021070D-08
      .261082303697D-09  .100000000000D+01  .227900000000D+04  .000000000000D+00
      .200000000000D+01  .000000000000D+00  .372529029846D-08  .100000000000D+03
      .414030000000D+05  .400000000000D+01
G09 2023 09 10 12 00 00 -.635636970401D-04  .102318153949D-10  .000000000000D+00
      .610000000000D+02 -.750312500000D+02  .440232623170D-08 -.100539908997D+01
     -.393390655518D-05  .272337673232D-02  .988505780697D-05  .515355314445D+04
      .432000000000D+05 -.633299350739D-07  .244593332303D+01  .335276126862D-07
      .956948040476D+00  .185000000000D+03  .194019269174D+01 -.791747265166D-08
      .214294640518D-10  .100000000000D+01  .227900000000D+04  .000000000000D+00
      .200000000000D+01  .000000000000D+00  .931322574615D-09  .610000000000D+02
      .414040000000D+05  .400000000000D+01
G11 2023 09 10 12 29 36 -.361932907254D-03 -.183035808732D-10  .000000000000D+00
      .199000000000D+03  .719687500000D+02  .460733477113D-08 -.190855919634D+01
      .377371907234D-05  .113286916167D-02  .392459332943D-05  .515359431076D+04
      .449760000000D+05  .577419996262D-07  .423497284522D+00 -.316649675369D-07
      .965935467455D+00  .306406250000D+03 -.276121662910D+01 -.825820113008D-08
      .272154193457D-09  .100000000000D+01  .227900000000D+04  .000000000000D+00
      .200000000000D+01  .000000000000D+00 -.838190317154D-08  .711000000000D+03
      .414050000000D+05  .400000000000D+01
G17 2023 09 10 12 00 00  .723645091057D-03  .227373675443D-12  .000000000000D+00
      .950000000000D+02  .710625000000D+02  .405302596766D-08 -.156519306089D+01
      .401213765144D-05  .137102124281D-01  .946596264839D-05  .515358425331D+04
      .432000000000D+05 -.134110450745D-06 -.610990464148D+00  .320374965668D-06
      .972877759829D+00  .207500000000D+03 -.140107234703D+01 -.774389399284D-08
     -.101789954246D-09  .100000000000D+01  .227900000000D+04  .000000000000D+00
      .200000000000D+01  .000000000000D+00 -.111758708954D-07  .950000000000D+02
      .414060000000D+05  .400000000000D+01
G19 2023 09 10 12 00 00  .369571615010D-03  .511590769747D-11  .000000000000D+00
      .740000000000D+02  .630000000000D+02  .417445959728D-08  .528948918148D+00
      .324845314026D-05  .943419244140D-02  .944547355175D-05  .515364912033D+04
      .432000000000D+05  .298023223877D-07 -.566543340976D+00 -.160187482834D-06
      .972009399453D+00  .203593750000D+03  .240922508039D+01 -.789032866386D-08
     -.625026034843D-10  .100000000000D+01  .227900000000D+04  .000000000000D+00
      .200000000000D+01  .000000000000D+00 -.153668224812D-07  .740000000000D+02
      .414070000000D+05  .400000000000D+01
G25 2023 09 10 12 00 00  .466997269541D-03  .204636307899D-11  .000000000000D+00
      .670000000000D+02  .375000000000D+00  .491449042254D-08  .997949677044D+00
     -.106170773506D-06  .111418911256D-01  .603310763836D-05  .515367683983D+04
      .432000000000D+05 -.149011611938D-06 -.173409374401D+01  .745058059692D-08
      .951876008405D+00  .259000000000D+03  .105287771880D+01 -.835891961113D-08
     -.325727853587D-09  .100000000000D+01  .227900000000D+04  .000000000000D+00
      .200000000000D+01  .000000000000D+00  .558793544769D-08  .670000000000D+02
      .414080000000D+05  .400000000000D+01
G28 2023 09 10 12 00 00 -.789854675531D-05 -.500222085975D-11  .000000000000D+00
      .236000000000D+03  .217812500000D+02  .447054335893D-08  .490973566083D+00
      .121444463730D-05  .668578781188D-03  .814907252789D-05  .515374021721D+04
      .432000000000D+05 -.149011611938D-07 -.280183584133D+01 -.689178705215D-07
      .961786151945D+00  .226250000000D+03  .158013005282D+01 -.790390065776D-08
      .313227332890D-09  .100000000000D+01  .227900000000D+04  .000000000000D+00
      .200000000000D+01  .000000000000D+00 -.977888703346D-08  .236000000000D+03
      .414090000000D+05  .400000000000D+01
G31 2023 09 10 12 00 00 -.223170965910D-03 -.568434188608D-12  .000000000000D+00
      .870000000000D+02  .271875000000D+02  .464269338681D-08  .102001498162D+01
      .170990824699D-05  .104384795995D-01  .774860382080D-05  .515361772919D+04
      .432000000000D+05 -.158324837685D-06 -.274532580874D+01  .987201929092D-07
      .954664391707D+00  .229343750000D+03  .580188371426D+00 -.807712215884D-08
      .200008331150D-09  .100000000000D+01  .227900000000D+04  .000000000000D+00
      .200000000000D+01  .000000000000D+00 -.130385160446D-07  .870000000000D+02
      .414100000000D+05  .400000000000D+01
G01 2023 09 10 12 00 00  .165848992765D-03 -.102318153949D-11  .000000000000D+00
      .920000000000D+02  .692500000000D+02  .392230623694D-08  .256058524992D+01
      .340677797794D-05  .128681855276D-01  .439025461674D-05  .515363611031D+04
      .432000000000D+05  .298023223877D-07  .392952519090D+00 -.203028321266D-06
      .990483348396D+00  .309906250000D+03  .992948946138D+00 -.765531887476D-08
      .247153152064D-09  .100000000000D+01  .227900000000D+04  .000000000000D+00
      .280000000000D+01  .630000000000D+02  .512227416039D-08  .920000000000D+02
      .414110000000D+05  .400000000000D+01
G07 2023 09 10 11 59 44  .712145119905D-04 -.105728759081D-10  .000000000000D+00
      .680000000000D+02  .172500000000D+02  .478305637635D-08  .186568903449D+01
      .618398189545D-06  .175538194599D-01  .793673098087D-05  .515371868134D+04
      .431840000000D+05 -.294297933578D-06 -.276575493014D+01 -.288709998131D-06
      .950618001261D+00  .223875000000D+03 -.217327089318D+01 -.803247744207D-08
      .296440919383D-09  .100000000000D+01  .227900000000D+04  .000000000000D+00
      .200000000000D+01  .000000000000D+00 -.111758708954D-07  .680000000000D+02
      .415450000000D+05  .400000000000D+01
G26 2023 09 10 12 00 00  .229173805565D-03 -.181898940355D-11  .000000000000D+00
      .820000000000D+02  .531250000000D+00  .532665044780D-08  .275883326345D+00
      .121071934700D-06  .815184297971D-02  .553205609322D-05  .515374348831D+04
      .432000000000D+05  .651925802231D-07 -.179178215419D+01  .137835741043D-06
      .932669912851D+00  .257062500000D+03  .468552983078D+00 -.852714090393D-08
     -.193222334200D-09  .100000000000D+01  .227900000000D+04  .000000000000D+00
      .200000000000D+01  .000000000000D+00  .698491930962D-08  .820000000000D+02
      .423530000000D+05  .400000000000D+01
G20 2023 09 10 12 00 00  .412622001022D-03 -.193267624127D-11  .000000000000D+00
      .940000000000D+02 -.525000000000D+02  .502913805522D-08 -.286606405269D+01
     -.274181365967D-05  .406696461141D-02  .190362334251D-05  .515361640549D+04
      .432000000000D+05 -.987201929092D-07  .125039913895D+01 -.521540641785D-07
      .949760896576D+00  .334343750000D+03 -.285269624815D+01 -.847356724380D-08
     -.159292349451D-09  .100000000000D+01  .227900000000D+04  .000000000000D+00
      .200000000000D+01  .000000000000D+00 -.838190317154D-08  .940000000000D+02
      .427170000000D+05  .400000000000D+01
